NORAD_CAT_ID,OBJECT_NAME,OBJECT_TYPE,EPOCH,MEAN_MOTION,ECCENTRICITY,INCLINATION,RA_OF_ASC_NODE,ARG_OF_PERICENTER,MEAN_ANOMALY,BSTAR,MEAN_MOTION_DOT,MEAN_MOTION_DDOT,TLE_LINE0,TLE_LINE1,TLE_LINE2,SEMIMAJOR_AXIS,PERIOD,APOGEE,PERIGEE,DECAYED
52986.0,STARLINK-4260,PAYLOAD,2023-08-16 06:36:49,15.08835726,0.0001841,53.216,337.8489,78.2169,281.9029,1.0617e-05,-1.19e-06,0.0,0 STARLINK-4260,1 52986U 22076A   23228.27557669 -.00000119  00000-0  10617-4 0  9992,2 52986  53.2160 337.8489 0001841  78.2169 281.9029 15.08835726 61944,6917.893,95.438,541.032,538.485,0.0
52986.0,STARLINK-4260,PAYLOAD,2023-08-16 17:44:31,15.08842692,0.0001266,53.2187,335.769,85.7475,274.3661,-5.8121e-06,-3.8e-06,0.0,0 STARLINK-4260,1 52986U 22076A   23228.73925173 -.00000380  00000-0 -58121-5 0  9996,2 52986  53.2187 335.7690 0001266  85.7475 274.3661 15.08842692 62015,6917.872,95.437,540.613,538.861,0.0
52986.0,STARLINK-4260,PAYLOAD,2023-08-17 00:06:04,15.08832979,0.0001127,53.2173,334.5786,85.8856,274.2265,-1.2857e-05,-4.92e-06,0.0,0 STARLINK-4260,1 52986U 22076A   23229.00421718 -.00000492  00000-0 -12857-4 0  9992,2 52986  53.2173 334.5786 0001127  85.8856 274.2265 15.08832979 62053,6917.902,95.438,540.546,538.987,0.0
52986.0,STARLINK-4260,PAYLOAD,2023-08-17 19:10:40,15.08854375,8.75e-05,53.2169,331.0106,93.1387,266.9705,0.0001557,2.192e-05,0.0,0 STARLINK-4260,1 52986U 22076A   23229.79908549  .00002192  00000-0  15570-3 0  9991,2 52986  53.2169 331.0106 0000875  93.1387 266.9705 15.08854375 62170,6917.836,95.437,540.307,539.096,0.0
52986.0,STARLINK-4260,PAYLOAD,2023-08-17 23:56:50,15.08834091,6.06e-05,53.2186,330.1221,251.2651,108.8276,7.968e-05,9.81e-06,0.0,0 STARLINK-4260,1 52986U 22076A   23229.99781146  .00000981  00000-0  79680-4 0  9992,2 52986  53.2186 330.1221 0000606 251.2651 108.8276 15.08834091 62204,6917.898,95.438,540.183,539.344,0.0
52986.0,STARLINK-4260,PAYLOAD,2023-08-18 09:29:10,15.0883396,0.0001318,53.2166,328.3354,77.4116,282.7024,6.9651e-05,8.21e-06,0.0,0 STARLINK-4260,1 52986U 22076A   23230.39525946  .00000821  00000-0  69651-4 0  9992,2 52986  53.2166 328.3354 0001318  77.4116 282.7024 15.08833960 62266,6917.899,95.438,540.676,538.852,0.0
52986.0,STARLINK-4260,PAYLOAD,2023-08-18 15:50:42,15.08842717,0.0001329,53.2174,327.1453,74.3475,285.7664,0.00014034,1.946e-05,0.0,0 STARLINK-4260,1 52986U 22076A   23230.66021456  .00001946  00000-0  14034-3 0  9992,2 52986  53.2174 327.1453 0001329  74.3475 285.7664 15.08842717 62306,6917.872,95.437,540.656,538.818,0.0
52986.0,STARLINK-4260,PAYLOAD,2023-08-20 12:21:30,15.08839984,0.0001343,53.216,318.8208,75.905,284.2091,0.00013141,1.804e-05,0.0,0 STARLINK-4260,1 52986U 22076A   23232.51493938  .00001804  00000-0  13141-3 0  9997,2 52986  53.2160 318.8208 0001343  75.9050 284.2091 15.08839984 62588,6917.88,95.438,540.675,538.816,0.0
52986.0,STARLINK-4260,PAYLOAD,2023-08-22 12:03:05,15.08839384,0.0001419,53.2172,309.9005,93.1856,266.9299,0.00013005,1.782e-05,0.0,0 STARLINK-4260,1 52986U 22076A   23234.50214181  .00001782  00000-0  13005-3 0  9993,2 52986  53.2172 309.9005 0001419  93.1856 266.9299 15.08839384 62881,6917.882,95.438,540.729,538.766,0.0
52986.0,STARLINK-4260,PAYLOAD,2023-08-24 13:20:02,15.08839376,0.0001315,53.2174,300.6797,95.2772,264.837,9.2243e-05,1.18e-05,0.0,0 STARLINK-4260,1 52986U 22076A   23236.55558414  .00001180  00000-0  92243-4 0  9994,2 52986  53.2174 300.6797 0001315  95.2772 264.8370 15.08839376 62725,6917.882,95.438,540.657,538.838,0.0
52986.0,STARLINK-4260,PAYLOAD,2023-08-25 11:35:26,15.08840734,0.0001408,53.2165,296.5172,88.0834,272.0319,4.4053e-05,4.13e-06,0.0,0 STARLINK-4260,1 52986U 22076A   23237.48294325  .00000413  00000-0  44053-4 0  9999,2 52986  53.2165 296.5172 0001408  88.0834 272.0319 15.08840734 62866,6917.878,95.438,540.717,538.769,0.0
52986.0,STARLINK-4260,PAYLOAD,2023-08-25 16:21:35,15.08844205,0.0001486,53.2166,295.6252,99.5019,260.6141,8.6634e-05,1.091e-05,0.0,0 STARLINK-4260,1 52986U 22076A   23237.68166143  .00001091  00000-0  86634-4 0  9991,2 52986  53.2166 295.6252 0001486  99.5019 260.6141 15.08844205 63363,6917.868,95.437,540.761,538.705,0.0
52986.0,STARLINK-4260,PAYLOAD,2023-08-26 09:50:50,15.08839596,0.0001475,53.216,292.3545,75.5911,284.5244,0.00013036,1.787e-05,0.0,0 STARLINK-4260,1 52986U 22076A   23238.41030713  .00001787  00000-0  13036-3 0  9993,2 52986  53.2160 292.3545 0001475  75.5911 284.5244 15.08839596 63477,6917.882,95.438,540.767,538.726,0.0
52986.0,STARLINK-4260,PAYLOAD,2023-08-26 11:26:13,15.08841225,0.0001476,53.216,292.0571,75.584,284.5316,0.00015203,2.132e-05,0.0,0 STARLINK-4260,1 52986U 22076A   23238.47654646  .00002132  00000-0  15203-3 0  9999,2 52986  53.2160 292.0571 0001476  75.5840 284.5316 15.08841225 63017,6917.877,95.437,540.763,538.721,0.0
52986.0,STARLINK-4260,PAYLOAD,2023-08-26 16:12:22,15.08845493,0.00015,53.2165,291.1622,82.0023,278.1139,0.0001728,2.464e-05,0.0,0 STARLINK-4260,1 52986U 22076A   23238.67526418  .00002464  00000-0  17280-3 0  9991,2 52986  53.2165 291.1622 0001500  82.0023 278.1139 15.08845493 63049,6917.864,95.437,540.766,538.691,0.0
52986.0,STARLINK-4260,PAYLOAD,2023-08-27 03:20:04,15.08842104,0.0001414,53.2161,289.0802,88.6655,271.4499,7.9522e-05,9.78e-06,0.0,0 STARLINK-4260,1 52986U 22076A   23239.13894575  .00000978  00000-0  79522-4 0  9991,2 52986  53.2161 289.0802 0001414  88.6655 271.4499 15.08842104 63117,6917.874,95.437,540.717,538.761,0.0
52986.0,STARLINK-4260,PAYLOAD,2023-08-27 14:27:46,15.08851628,0.000145,53.2157,286.9992,85.7975,274.3183,0.00020902,3.041e-05,0.0,0 STARLINK-4260,1 52986U 22076A   23239.60261987  .00003041  00000-0  20902-3 0  9999,2 52986  53.2157 286.9992 0001450  85.7975 274.3183 15.08851628 63653,6917.845,95.437,540.713,538.707,0.0
52986.0,STARLINK-4260,PAYLOAD,2023-08-28 03:10:52,15.08838089,0.0001581,53.215,284.621,86.3363,273.781,7.8746e-05,9.65e-06,0.0,0 STARLINK-4260,1 52986U 22076A   23240.13254750  .00000965  00000-0  78746-4 0  9991,2 52986  53.2150 284.6210 0001581  86.3363 273.7810 15.08838089 63732,6917.886,95.438,540.845,538.658,0.0
52986.0,STARLINK-4260,PAYLOAD,2023-08-28 14:18:33,15.08844052,0.0001395,53.2153,282.5398,95.4189,264.6962,8.1928e-05,1.016e-05,0.0,0 STARLINK-4260,1 52986U 22076A   23240.59622354  .00001016  00000-0  81928-4 0  9994,2 52986  53.2153 282.5398 0001395  95.4189 264.6962 15.08844052 63339,6917.868,95.437,540.698,538.768,0.0
52986.0,STARLINK-4260,PAYLOAD,2023-08-29 09:23:11,15.08840876,0.0001334,53.2159,278.9725,88.3284,271.7861,2.888e-05,1.72e-06,0.0,0 STARLINK-4260,1 52986U 22076A   23241.39110725  .00000172  00000-0  28880-4 0  9997,2 52986  53.2159 278.9725 0001334  88.3284 271.7861 15.08840876 63920,6917.878,95.437,540.666,538.82,0.0
52986.0,STARLINK-4260,PAYLOAD,2023-08-29 12:33:57,15.08848774,0.0002184,53.216,278.3778,104.8678,255.2556,-4.7008e-05,-1.037e-05,0.0,0 STARLINK-4260,1 52986U 22076A   23241.52358309 -.00001037  00000-0 -47008-4 0  9990,2 52986  53.2160 278.3778 0002184 104.8678 255.2556 15.08848774 63472,6917.854,95.437,541.229,538.208,0.0
52986.0,STARLINK-4260,PAYLOAD,2023-08-30 14:00:07,15.08842055,0.0001416,53.2164,273.619,90.0431,270.0724,0.00011481,1.54e-05,0.0,0 STARLINK-4260,1 52986U 22076A   23242.58342578  .00001540  00000-0  11481-3 0  9990,2 52986  53.2164 273.6190 0001416  90.0431 270.0724 15.08842055 64101,6917.874,95.437,540.719,538.76,0.0
52986.0,STARLINK-4260,PAYLOAD,2023-08-30 18:46:18,15.08832486,0.0001622,53.2161,272.7268,86.1419,273.9758,4.7883e-06,-2.12e-06,0.0,0 STARLINK-4260,1 52986U 22076A   23242.78215569 -.00000212  00000-0  47883-5 0  9994,2 52986  53.2161 272.7268 0001622  86.1419 273.9758 15.08832486 63661,6917.903,95.438,540.89,538.646,0.0
52986.0,STARLINK-4260,PAYLOAD,2023-08-31 10:40:09,15.08837003,0.0001349,53.2164,269.7541,89.6118,270.5029,5.9243e-05,6.55e-06,0.0,0 STARLINK-4260,1 52986U 22076A   23243.44455335  .00000655  00000-0  59243-4 0  9997,2 52986  53.2164 269.7541 0001349  89.6118 270.5029 15.08837003 63769,6917.89,95.438,540.688,538.821,0.0
52986.0,STARLINK-4260,PAYLOAD,2023-09-01 18:27:51,15.08844601,0.0001322,53.2158,263.8051,86.3826,273.7318,9.1523e-05,1.169e-05,0.0,0 STARLINK-4260,1 52986U 22076A   23244.76934870  .00001169  00000-0  91523-4 0  9997,2 52986  53.2158 263.8051 0001322  86.3826 273.7318 15.08844601 64437,6917.866,95.437,540.646,538.817,0.0
52986.0,STARLINK-4260,PAYLOAD,2023-09-02 00:49:24,15.08839988,0.0001315,53.2155,262.6166,85.2245,274.8897,0.00015125,2.12e-05,0.0,0 STARLINK-4260,1 52986U 22076A   23245.03431073  .00002120  00000-0  15125-3 0  9996,2 52986  53.2155 262.6166 0001315  85.2245 274.8897 15.08839988 64002,6917.88,95.438,540.655,538.836,0.0
52986.0,STARLINK-4260,PAYLOAD,2023-09-02 13:32:29,15.08844196,0.0001313,53.2153,260.2377,84.6854,275.4288,0.00012031,1.628e-05,0.0,0 STARLINK-4260,1 52986U 22076A   23245.56422867  .00001628  00000-0  12031-3 0  9990,2 52986  53.2153 260.2377 0001313  84.6854 275.4288 15.08844196 64081,6917.868,95.437,540.641,538.824,0.0
52986.0,STARLINK-4260,PAYLOAD,2023-09-03 00:40:11,15.08841,0.0001699,53.2156,258.1547,86.2672,273.8514,4.9697e-05,5.03e-06,0.0,0 STARLINK-4260,1 52986U 22076A   23246.02791213  .00000503  00000-0  49697-4 0  9996,2 52986  53.2156 258.1547 0001699  86.2672 273.8514 15.08841000 64627,6917.877,95.437,540.918,538.567,0.0
52986.0,STARLINK-4260,PAYLOAD,2023-09-03 07:01:44,15.08841161,0.0001328,53.2144,256.9669,86.6804,273.434,4.5374e-05,4.34e-06,0.0,0 STARLINK-4260,1 52986U 22076A   23246.29287176  .00000434  00000-0  45374-4 0  9994,2 52986  53.2144 256.9669 0001328  86.6804 273.4340 15.08841161 64198,6917.877,95.437,540.661,538.823,0.0
52986.0,STARLINK-4260,PAYLOAD,2023-09-04 00:30:59,15.08832019,0.0001334,53.2144,253.6942,91.9566,268.1579,8.6087e-05,1.082e-05,0.0,0 STARLINK-4260,1 52986U 22076A   23247.02151650  .00001082  00000-0  86087-4 0  9999,2 52986  53.2144 253.6942 0001334  91.9566 268.1579 15.08832019 64778,6917.905,95.438,540.693,538.847,0.0
